{"type": "FeatureCollection", "features": [ {"type": "Feature", "properties": {"norad_id": 66480, "name": "STARLINK-35670", "group": "last-30-days", "lat": 21.7246183617682, "lon": 140.40479850282057, "alt_km": 408.3592591282222, "timestamp": "2025-12-05T04:52:14.141794+00:00", "meta": {"OBJECT_NAME": "STARLINK-35670", "OBJECT_ID": "2025-262AA", "EPOCH": "2025-12-04T18:00:02.000160", "MEAN_MOTION": 15.53913911, "ECCENTRICITY": 0.0001711, "INCLINATION": 42.9997, "RA_OF_ASC_NODE": 117.7488, "ARG_OF_PERICENTER": 282.3704, "MEAN_ANOMALY": 95.5867, "EPHEMERIS_TYPE": 0, "CLASSIFICATION_TYPE": "U", "NORAD_CAT_ID": 66480, "ELEMENT_SET_NO": 999, "REV_AT_EPOCH": 435, "BSTAR": -0.0364, "MEAN_MOTION_DOT": -0.02136665, "MEAN_MOTION_DDOT": 0}, "tle": {"line1": "1 66480U 25262AA  25338.75002315 -.02136665  00000+0 -36400-1 0  9999", "line2": "2 66480  42.9997 117.7488 0001711 282.3704  95.5867 15.53913911  4358"}}, "geometry": {"type": "Point", "coordinates": [140.40479850282057, 21.7246183617682]}}, {"type": "Feature", "properties": {"norad_id": 66481, "name": "STARLINK-35698", "group": "last-30-days", "lat": 22.897961166609342, "lon": 142.03838988618037, "alt_km": 408.26988119473026, "timestamp": "2025-12-05T04:52:14.141803+00:00", "meta": {"OBJECT_NAME": "STARLINK-35698", "OBJECT_ID": "2025-262AB", "EPOCH": "2025-12-04T18:00:02.000160", "MEAN_MOTION": 15.53911253, "ECCENTRICITY": 0.0001609, "INCLINATION": 42.9995, "RA_OF_ASC_NODE": 117.7433, "ARG_OF_PERICENTER": 279.4699, "MEAN_ANOMALY": 100.4073, "EPHEMERIS_TYPE": 0, "CLASSIFICATION_TYPE": "U", "NORAD_CAT_ID": 66481, "ELEMENT_SET_NO": 999, "REV_AT_EPOCH": 435, "BSTAR": -0.036369, "MEAN_MOTION_DOT": -0.02134803, "MEAN_MOTION_DDOT": 0}, "tle": {"line1": "1 66481U 25262AB  25338.75002315 -.02134803  00000+0 -36369-1 0  9996", "line2": "2 66481  42.9995 117.7433 0001609 279.4699 100.4073 15.53911253  4355"}}, "geometry": {"type": "Point", "coordinates": [142.03838988618037, 22.897961166609342]}}, {"type": "Feature", "properties": {"norad_id": 66482, "name": "STARLINK-35648", "group": "last-30-days", "lat": 24.055663411774017, "lon": 143.7030040051353, "alt_km": 408.0158956342284, "timestamp": "2025-12-05T04:52:14.141813+00:00", "meta": {"OBJECT_NAME": "STARLINK-35648", "OBJECT_ID": "2025-262AC", "EPOCH": "2025-12-04T18:00:02.000160", "MEAN_MOTION": 15.53908425, "ECCENTRICITY": 0.0001619, "INCLINATION": 42.9996, "RA_OF_ASC_NODE": 117.7386, "ARG_OF_PERICENTER": 283.2909, "MEAN_ANOMALY": 98.5019, "EPHEMERIS_TYPE": 0, "CLASSIFICATION_TYPE": "U", "NORAD_CAT_ID": 66482, "ELEMENT_SET_NO": 999, "REV_AT_EPOCH": 419, "BSTAR": -0.036236, "MEAN_MOTION_DOT": -0.0212767, "MEAN_MOTION_DDOT": 0}, "tle": {"line1": "1 66482U 25262AC  25338.75002315 -.02127670  00000+0 -36236-1 0  9994", "line2": "2 66482  42.9996 117.7386 0001619 283.2909  98.5019 15.53908425  4198"}}, "geometry": {"type": "Point", "coordinates": [143.7030040051353, 24.055663411774017]}}, {"type": "Feature", "properties": {"norad_id": 66483, "name": "STARLINK-35654", "group": "last-30-days", "lat": 25.1943693136489, "lon": 145.39588794477842, "alt_km": 407.97287573106496, "timestamp": "2025-12-05T04:52:14.141844+00:00", "meta": {"OBJECT_NAME": "STARLINK-35654", "OBJECT_ID": "2025-262AD", "EPOCH": "2025-12-04T18:00:02.000160", "MEAN_MOTION": 15.5390903, "ECCENTRICITY": 0.0001651, "INCLINATION": 42.9998, "RA_OF_ASC_NODE": 117.733, "ARG_OF_PERICENTER": 280.1689, "MEAN_ANOMALY": 103.5427, "EPHEMERIS_TYPE": 0, "CLASSIFICATION_TYPE": "U", "NORAD_CAT_ID": 66483, "ELEMENT_SET_NO": 999, "REV_AT_EPOCH": 435, "BSTAR": -0.036293, "MEAN_MOTION_DOT": -0.02130721, "MEAN_MOTION_DDOT": 0}, "tle": {"line1": "1 66483U 25262AD  25338.75002315 -.02130721  00000+0 -36293-1 0  9999", "line2": "2 66483  42.9998 117.7330 0001651 280.1689 103.5427 15.53909030  4358"}}, "geometry": {"type": "Point", "coordinates": [145.39588794477842, 25.1943693136489]}}, {"type": "Feature", "properties": {"norad_id": 66484, "name": "STARLINK-35371", "group": "last-30-days", "lat": 26.312948152968545, "lon": 147.12250551990326, "alt_km": 407.77207752788763, "timestamp": "2025-12-05T04:52:14.141853+00:00", "meta": {"OBJECT_NAME": "STARLINK-35371", "OBJECT_ID": "2025-262AE", "EPOCH": "2025-12-04T18:00:02.000160", "MEAN_MOTION": 15.53910585, "ECCENTRICITY": 0.0001466, "INCLINATION": 42.9997, "RA_OF_ASC_NODE": 117.7296, "ARG_OF_PERICENTER": 280.306, "MEAN_ANOMALY": 105.3234, "EPHEMERIS_TYPE": 0, "CLASSIFICATION_TYPE": "U", "NORAD_CAT_ID": 66484, "ELEMENT_SET_NO": 999, "REV_AT_EPOCH": 435, "BSTAR": -0.036333, "MEAN_MOTION_DOT": -0.0213274, "MEAN_MOTION_DDOT": 0}, "tle": {"line1": "1 66484U 25262AE  25338.75002315 -.02132740  00000+0 -36333-1 0  9998", "line2": "2 66484  42.9997 117.7296 0001466 280.3060 105.3234 15.53910585  4351"}}, "geometry": {"type": "Point", "coordinates": [147.12250551990326, 26.312948152968545]}}, {"type": "Feature", "properties": {"norad_id": 66485, "name": "STARLINK-34774", "group": "last-30-days", "lat": -17.817851944232295, "lon": 9.607891235080952, "alt_km": 377.2679104970439, "timestamp": "2025-12-05T04:52:14.141862+00:00", "meta": {"OBJECT_NAME": "STARLINK-34774", "OBJECT_ID": "2025-263A", "EPOCH": "2025-12-04T18:00:02.000160", "MEAN_MOTION": 15.66054012, "ECCENTRICITY": 0.0001217, "INCLINATION": 42.9989, "RA_OF_ASC_NODE": 172.1381, "ARG_OF_PERICENTER": 270.4569, "MEAN_ANOMALY": 261.2582, "EPHEMERIS_TYPE": 0, "CLASSIFICATION_TYPE": "U", "NORAD_CAT_ID": 66485, "ELEMENT_SET_NO": 999, "REV_AT_EPOCH": 435, "BSTAR": -0.021998, "MEAN_MOTION_DOT": -0.02034928, "MEAN_MOTION_DDOT": 0}, "tle": {"line1": "1 66485U 25263A   25338.75002315 -.02034928  00000+0 -21998-1 0  9990", "line2": "2 66485  42.9989 172.1381 0001217 270.4569 261.2582 15.66054012  4357"}}, "geometry": {"type": "Point", "coordinates": [9.607891235080952, -17.817851944232295]}}, {"type": "Feature", "properties": {"norad_id": 66486, "name": "STARLINK-34844", "group": "last-30-days", "lat": -19.03747152797137, "lon": 11.159507787018388, "alt_km": 377.3144491421972, "timestamp": "2025-12-05T04:52:14.141872+00:00", "meta": {"OBJECT_NAME": "STARLINK-34844", "OBJECT_ID": "2025-263B", "EPOCH": "2025-12-04T18:00:02.000160", "MEAN_MOTION": 15.660528, "ECCENTRICITY": 0.0001241, "INCLINATION": 42.9989, "RA_OF_ASC_NODE": 172.1324, "ARG_OF_PERICENTER": 269.4426, "MEAN_ANOMALY": 264.1899, "EPHEMERIS_TYPE": 0, "CLASSIFICATION_TYPE": "U", "NORAD_CAT_ID": 66486, "ELEMENT_SET_NO": 999, "REV_AT_EPOCH": 430, "BSTAR": -0.02198, "MEAN_MOTION_DOT": -0.02033389, "MEAN_MOTION_DDOT": 0}, "tle": {"line1": "1 66486U 25263B   25338.75002315 -.02033389  00000+0 -21980-1 0  9992", "line2": "2 66486  42.9989 172.1324 0001241 269.4426 264.1899 15.66052800  4303"}}, "geometry": {"type": "Point", "coordinates": [11.159507787018388, -19.03747152797137]}}, {"type": "Feature", "properties": {"norad_id": 66487, "name": "STARLINK-34733", "group": "last-30-days", "lat": -20.2610580618984, "lon": 12.756232681903912, "alt_km": 377.02533519673216, "timestamp": "2025-12-05T04:52:14.141883+00:00", "meta": {"OBJECT_NAME": "STARLINK-34733", "OBJECT_ID": "2025-263C", "EPOCH": "2025-12-04T14:00:01.000224", "MEAN_MOTION": 15.667801, "ECCENTRICITY": 0.00016357, "INCLINATION": 42.9989, "RA_OF_ASC_NODE": 173.1245, "ARG_OF_PERICENTER": 258.8643, "MEAN_ANOMALY": 55.6419, "EPHEMERIS_TYPE": 0, "CLASSIFICATION_TYPE": "U", "NORAD_CAT_ID": 66487, "ELEMENT_SET_NO": 999, "REV_AT_EPOCH": 432, "BSTAR": -0.021131499, "MEAN_MOTION_DOT": -0.02016602, "MEAN_MOTION_DDOT": 0}, "tle": {"line1": "1 66487U 25263C   25338.58334491 -.02016602  00000+0 -21131-1 0  9994", "line2": "2 66487  42.9989 173.1245 0001635 258.8643  55.6419 15.66780100  4321"}}, "geometry": {"type": "Point", "coordinates": [12.756232681903912, -20.2610580618984]}}, {"type": "Feature", "properties": {"norad_id": 66488, "name": "STARLINK-35515", "group": "last-30-days", "lat": -21.435766360023862, "lon": 14.335524665180767, "alt_km": 377.55943270766693, "timestamp": "2025-12-05T04:52:14.141891+00:00", "meta": {"OBJECT_NAME": "STARLINK-35515", "OBJECT_ID": "2025-263D", "EPOCH": "2025-12-04T18:00:02.000160", "MEAN_MOTION": 15.66053413, "ECCENTRICITY": 0.0001198, "INCLINATION": 42.9987, "RA_OF_ASC_NODE": 172.1233, "ARG_OF_PERICENTER": 273.6369, "MEAN_ANOMALY": 263.8304, "EPHEMERIS_TYPE": 0, "CLASSIFICATION_TYPE": "U", "NORAD_CAT_ID": 66488, "ELEMENT_SET_NO": 999, "REV_AT_EPOCH": 435, "BSTAR": -0.022004, "MEAN_MOTION_DOT": -0.02035376, "MEAN_MOTION_DDOT": 0}, "tle": {"line1": "1 66488U 25263D   25338.75002315 -.02035376  00000+0 -22004-1 0  9990", "line2": "2 66488  42.9987 172.1233 0001198 273.6369 263.8304 15.66053413  4359"}}, "geometry": {"type": "Point", "coordinates": [14.335524665180767, -21.435766360023862]}}, {"type": "Feature", "properties": {"norad_id": 66489, "name": "STARLINK-35696", "group": "last-30-days", "lat": -22.613030564779844, "lon": 15.962441263608842, "alt_km": 377.4874311366548, "timestamp": "2025-12-05T04:52:14.141900+00:00", "meta": {"OBJECT_NAME": "STARLINK-35696", "OBJECT_ID": "2025-263E", "EPOCH": "2025-12-04T18:00:02.000160", "MEAN_MOTION": 15.66052097, "ECCENTRICITY": 0.0001234, "INCLINATION": 42.9988, "RA_OF_ASC_NODE": 172.1181, "ARG_OF_PERICENTER": 267.8524, "MEAN_ANOMALY": 271.5314, "EPHEMERIS_TYPE": 0, "CLASSIFICATION_TYPE": "U", "NORAD_CAT_ID": 66489, "ELEMENT_SET_NO": 999, "REV_AT_EPOCH": 435, "BSTAR": -0.021963, "MEAN_MOTION_DOT": -0.02031932, "MEAN_MOTION_DDOT": 0}, "tle": {"line1": "1 66489U 25263E   25338.75002315 -.02031932  00000+0 -21963-1 0  9998", "line2": "2 66489  42.9988 172.1181 0001234 267.8524 271.5314 15.66052097  4356"}}, "geometry": {"type": "Point", "coordinates": [15.962441263608842, -22.613030564779844]}}]}